{"type": "FeatureCollection", "features": [{"type": "Feature", "properties": {"norad_id": 28890, "name": "BEIJING 1", "group": "dmc", "lat": 48.94630772631935, "lon": -48.552110224845926, "alt_km": 667.0604457504014, "timestamp": "2025-12-20T07:33:50.470261+00:00", "meta": {"OBJECT_NAME": "BEIJING 1", "OBJECT_ID": "2005-043A", "EPOCH": "2025-12-19T22:45:59.183424", "MEAN_MOTION": 14.63372898, "ECCENTRICITY": 0.00156348, "INCLINATION": 98.2654, "RA_OF_ASC_NODE": 121.4726, "ARG_OF_PERICENTER": 119.894, "MEAN_ANOMALY": 240.3818, "EPHEMERIS_TYPE": 0, "CLASSIFICATION_TYPE": "U", "NORAD_CAT_ID": 28890, "ELEMENT_SET_NO": 999, "REV_AT_EPOCH": 7443, "BSTAR": 8.845555e-05, "MEAN_MOTION_DOT": 4.09e-06, "MEAN_MOTION_DDOT": 0}, "tle": {"line1": "1 28890U 05043A   25353.94860166  .00000409  00000+0  88456-4 0  9994", "line2": "2 28890  98.2654 121.4726 0015634 119.8940 240.3818 14.63372898 74432"}}, "geometry": {"type": "Point", "coordinates": [-48.552110224845926, 48.94630772631935]}}, {"type": "Feature", "properties": {"norad_id": 33320, "name": "HUANJING 1A (HJ-1A)", "group": "dmc", "lat": -17.166046725420717, "lon": -15.322079682951248, "alt_km": 611.3401223029523, "timestamp": "2025-12-20T07:33:50.470285+00:00", "meta": {"OBJECT_NAME": "HUANJING 1A (HJ-1A)", "OBJECT_ID": "2008-041A", "EPOCH": "2025-12-19T23:32:50.093376", "MEAN_MOTION": 14.83414116, "ECCENTRICITY": 0.00196288, "INCLINATION": 97.6535, "RA_OF_ASC_NODE": 341.9772, "ARG_OF_PERICENTER": 11.3481, "MEAN_ANOMALY": 348.8172, "EPHEMERIS_TYPE": 0, "CLASSIFICATION_TYPE": "U", "NORAD_CAT_ID": 33320, "ELEMENT_SET_NO": 999, "REV_AT_EPOCH": 93183, "BSTAR": 0.00010046819, "MEAN_MOTION_DOT": 7.76e-06, "MEAN_MOTION_DDOT": 0}, "tle": {"line1": "1 33320U 08041A   25353.98113534  .00000776  00000+0  10047-3 0  9990", "line2": "2 33320  97.6535 341.9772 0019628  11.3481 348.8172 14.83414116931835"}}, "geometry": {"type": "Point", "coordinates": [-15.322079682951248, -17.166046725420717]}}, {"type": "Feature", "properties": {"norad_id": 33321, "name": "HUANJING 1B (HJ-1B)", "group": "dmc", "lat": -8.672401073864338, "lon": 164.80131773281332, "alt_km": 643.8070186021687, "timestamp": "2025-12-20T07:33:50.470300+00:00", "meta": {"OBJECT_NAME": "HUANJING 1B (HJ-1B)", "OBJECT_ID": "2008-041B", "EPOCH": "2025-12-19T22:37:16.821120", "MEAN_MOTION": 14.82839799, "ECCENTRICITY": 0.00379852, "INCLINATION": 97.6395, "RA_OF_ASC_NODE": 345.6183, "ARG_OF_PERICENTER": 53.019, "MEAN_ANOMALY": 307.4492, "EPHEMERIS_TYPE": 0, "CLASSIFICATION_TYPE": "U", "NORAD_CAT_ID": 33321, "ELEMENT_SET_NO": 999, "REV_AT_EPOCH": 93184, "BSTAR": 0.00015884085, "MEAN_MOTION_DOT": 1.25e-05, "MEAN_MOTION_DDOT": 0}, "tle": {"line1": "1 33321U 08041B   25353.94255580  .00001250  00000+0  15884-3 0  9997", "line2": "2 33321  97.6395 345.6183 0037985  53.0190 307.4492 14.82839799931847"}}, "geometry": {"type": "Point", "coordinates": [164.80131773281332, -8.672401073864338]}}, {"type": "Feature", "properties": {"norad_id": 33446, "name": "YAOGAN-4", "group": "dmc", "lat": 79.79392493672607, "lon": 154.97631633649956, "alt_km": 622.0563557491478, "timestamp": "2025-12-20T07:33:50.470313+00:00", "meta": {"OBJECT_NAME": "YAOGAN-4", "OBJECT_ID": "2008-061A", "EPOCH": "2025-12-19T10:04:29.303904", "MEAN_MOTION": 14.8270055, "ECCENTRICITY": 0.0013167, "INCLINATION": 97.919, "RA_OF_ASC_NODE": 283.4536, "ARG_OF_PERICENTER": 299.8838, "MEAN_ANOMALY": 60.1067, "EPHEMERIS_TYPE": 0, "CLASSIFICATION_TYPE": "U", "NORAD_CAT_ID": 33446, "ELEMENT_SET_NO": 999, "REV_AT_EPOCH": 91902, "BSTAR": 0.00012167, "MEAN_MOTION_DOT": 9.29e-06, "MEAN_MOTION_DDOT": 0}, "tle": {"line1": "1 33446U 08061A   25353.41978361  .00000929  00000+0  12167-3 0  9991", "line2": "2 33446  97.9190 283.4536 0013167 299.8838  60.1067 14.82700550919026"}}, "geometry": {"type": "Point", "coordinates": [154.97631633649956, 79.79392493672607]}}, {"type": "Feature", "properties": {"norad_id": 35681, "name": "DEIMOS-1", "group": "dmc", "lat": 15.154234448091627, "lon": 152.4613430670326, "alt_km": 644.9573968305158, "timestamp": "2025-12-20T07:33:50.470324+00:00", "meta": {"OBJECT_NAME": "DEIMOS-1", "OBJECT_ID": "2009-041A", "EPOCH": "2025-12-19T23:21:14.931936", "MEAN_MOTION": 14.74964433, "ECCENTRICITY": 0.00026178, "INCLINATION": 97.7141, "RA_OF_ASC_NODE": 154.2392, "ARG_OF_PERICENTER": 67.5886, "MEAN_ANOMALY": 292.5601, "EPHEMERIS_TYPE": 0, "CLASSIFICATION_TYPE": "U", "NORAD_CAT_ID": 35681, "ELEMENT_SET_NO": 999, "REV_AT_EPOCH": 88046, "BSTAR": 0.00012453759, "MEAN_MOTION_DOT": 7.9e-06, "MEAN_MOTION_DDOT": 0}, "tle": {"line1": "1 35681U 09041A   25353.97308949  .00000790  00000+0  12454-3 0  9998", "line2": "2 35681  97.7141 154.2392 0002617  67.5886 292.5601 14.74964433880462"}}, "geometry": {"type": "Point", "coordinates": [152.4613430670326, 15.154234448091627]}}, {"type": "Feature", "properties": {"norad_id": 35683, "name": "UK-DMC 2", "group": "dmc", "lat": 48.183953691972285, "lon": 120.12551569581657, "alt_km": 638.057437893427, "timestamp": "2025-12-20T07:33:50.470365+00:00", "meta": {"OBJECT_NAME": "UK-DMC 2", "OBJECT_ID": "2009-041C", "EPOCH": "2025-12-19T23:12:23.977152", "MEAN_MOTION": 14.75637696, "ECCENTRICITY": 0.00015069, "INCLINATION": 97.856, "RA_OF_ASC_NODE": 128.6656, "ARG_OF_PERICENTER": 93.2862, "MEAN_ANOMALY": 266.852, "EPHEMERIS_TYPE": 0, "CLASSIFICATION_TYPE": "U", "NORAD_CAT_ID": 35683, "ELEMENT_SET_NO": 999, "REV_AT_EPOCH": 88013, "BSTAR": 0.00016080471, "MEAN_MOTION_DOT": 1.049e-05, "MEAN_MOTION_DDOT": 0}, "tle": {"line1": "1 35683U 09041C   25353.96694418  .00001049  00000+0  16080-3 0  9995", "line2": "2 35683  97.8560 128.6656 0001506  93.2862 266.8520 14.75637696880131"}}, "geometry": {"type": "Point", "coordinates": [120.12551569581657, 48.183953691972285]}}, {"type": "Feature", "properties": {"norad_id": 40715, "name": "DMC3-FM1", "group": "dmc", "lat": 4.9380500034975015, "lon": -139.43594600016993, "alt_km": 613.7342836114085, "timestamp": "2025-12-20T07:33:50.470382+00:00", "meta": {"OBJECT_NAME": "DMC3-FM1", "OBJECT_ID": "2015-032A", "EPOCH": "2025-12-19T21:50:29.965056", "MEAN_MOTION": 14.85450238, "ECCENTRICITY": 0.00042593, "INCLINATION": 97.6691, "RA_OF_ASC_NODE": 220.8409, "ARG_OF_PERICENTER": 292.121, "MEAN_ANOMALY": 67.9553, "EPHEMERIS_TYPE": 0, "CLASSIFICATION_TYPE": "U", "NORAD_CAT_ID": 40715, "ELEMENT_SET_NO": 999, "REV_AT_EPOCH": 56329, "BSTAR": 4.118262e-05, "MEAN_MOTION_DOT": 3.04e-06, "MEAN_MOTION_DDOT": 0}, "tle": {"line1": "1 40715U 15032A   25353.91006904  .00000304  00000+0  41183-4 0  9992", "line2": "2 40715  97.6691 220.8409 0004259 292.1210  67.9553 14.85450238563299"}}, "geometry": {"type": "Point", "coordinates": [-139.43594600016993, 4.9380500034975015]}}, {"type": "Feature", "properties": {"norad_id": 40716, "name": "DMC3-FM2", "group": "dmc", "lat": -63.81998019198208, "lon": 26.760294654452203, "alt_km": 617.3380970191465, "timestamp": "2025-12-20T07:33:50.470393+00:00", "meta": {"OBJECT_NAME": "DMC3-FM2", "OBJECT_ID": "2015-032B", "EPOCH": "2025-12-19T22:22:52.833216", "MEAN_MOTION": 14.85454416, "ECCENTRICITY": 0.00047537, "INCLINATION": 97.675, "RA_OF_ASC_NODE": 222.3116, "ARG_OF_PERICENTER": 298.2778, "MEAN_ANOMALY": 61.7958, "EPHEMERIS_TYPE": 0, "CLASSIFICATION_TYPE": "U", "NORAD_CAT_ID": 40716, "ELEMENT_SET_NO": 999, "REV_AT_EPOCH": 56329, "BSTAR": 0.00012217307, "MEAN_MOTION_DOT": 1.002e-05, "MEAN_MOTION_DDOT": 0}, "tle": {"line1": "1 40716U 15032B   25353.93255594  .00001002  00000+0  12217-3 0  9997", "line2": "2 40716  97.6750 222.3116 0004753 298.2778  61.7958 14.85454416563296"}}, "geometry": {"type": "Point", "coordinates": [26.760294654452203, -63.81998019198208]}}, {"type": "Feature", "properties": {"norad_id": 40717, "name": "DMC3-FM3", "group": "dmc", "lat": 50.31457725416069, "lon": 53.67862600894385, "alt_km": 610.4341831798347, "timestamp": "2025-12-20T07:33:50.470404+00:00", "meta": {"OBJECT_NAME": "DMC3-FM3", "OBJECT_ID": "2015-032C", "EPOCH": "2025-12-19T21:17:06.208224", "MEAN_MOTION": 14.85442124, "ECCENTRICITY": 0.00040937, "INCLINATION": 97.6807, "RA_OF_ASC_NODE": 223.9055, "ARG_OF_PERICENTER": 300.904, "MEAN_ANOMALY": 59.1772, "EPHEMERIS_TYPE": 0, "CLASSIFICATION_TYPE": "U", "NORAD_CAT_ID": 40717, "ELEMENT_SET_NO": 999, "REV_AT_EPOCH": 56329, "BSTAR": 0.00010614357, "MEAN_MOTION_DOT": 8.63e-06, "MEAN_MOTION_DDOT": 0}, "tle": {"line1": "1 40717U 15032C   25353.88687741  .00000863  00000+0  10614-3 0  9998", "line2": "2 40717  97.6807 223.9055 0004093 300.9040  59.1772 14.85442124563297"}}, "geometry": {"type": "Point", "coordinates": [53.67862600894385, 50.31457725416069]}}]}